OBJECT_NAME,OBJECT_ID,EPOCH,MEAN_MOTION,ECCENTRICITY,INCLINATION,RA_OF_ASC_NODE,ARG_OF_PERICENTER,MEAN_ANOMALY,EPHEMERIS_TYPE,CLASSIFICATION_TYPE,NORAD_CAT_ID,ELEMENT_SET_NO,REV_AT_EPOCH,BSTAR,MEAN_MOTION_DOT,MEAN_MOTION_DDOT
GSAT0225 (GALILEO 29),2024-079A,2026-07-08T05:56:26.013120,1.70473736,.00007776,55.1311,100.4922,311.6524,239.2330,0,U,59598,999,1367,0,-.9E-7,0
GSAT0227 (GALILEO 30),2024-079C,2026-07-06T22:43:23.740320,1.70473885,.00026347,55.1260,100.5264,63.1115,296.9336,0,U,59600,999,1370,0,-.3E-7,0
GSAT0232 (GALILEO 32),2024-167A,2026-07-08T11:10:26.486112,1.70474025,.00064663,55.1809,220.7302,230.0333,197.7392,0,U,61182,999,1124,0,.85E-6,0
GSAT0226 (GALILEO 31),2024-167B,2026-07-08T18:53:28.717152,1.70473959,.00031638,55.1792,220.7283,233.9566,122.4953,0,U,61183,999,1121,0,.87E-6,0
BEIDOU-3 M25 (C47),2024-168B,2026-07-08T09:48:34.839648,1.86229965,.00032857,54.4534,301.5057,292.7058,73.2232,0,U,61186,999,1218,0,-.66E-6,0
BEIDOU-3 M27 (C49),2024-168C,2026-07-08T06:23:17.107008,1.86230038,.00010197,54.4489,301.4934,48.3070,357.0720,0,U,61187,999,965,0,-.65E-6,0
GPS BIII-7  (PRN 01),2024-242A,2026-07-08T08:14:53.018016,2.00571888,.00177115,54.8398,333.3248,4.0687,41.6116,0,U,62339,999,1168,0,-.74E-6,0
QZS-6 (QZSS/PRN 200),2025-023A,2026-07-08T22:02:38.646240,1.00268987,.00018594,0.0273,304.9773,182.4519,220.6003,0,U,62876,999,516,0,-.218E-5,0
COSMOS 2584 (704K),2025-042A,2026-07-04T12:04:02.572320,2.13103855,.00060594,65.0947,72.2135,222.1818,137.8396,0,U,63130,999,1041,0,-.1E-6,0
GPS BIII-8  (PRN 21),2025-116A,2026-07-07T06:45:38.793600,2.00574400,.00083492,55.2499,30.3230,339.7972,202.1311,0,U,64202,999,827,0,-.56E-6,0
COSMOS 2596 (708K),2025-206B,2026-07-07T14:29:48.495264,2.13100766,.00111323,64.6217,314.2756,308.3716,26.9282,0,U,65590,999,634,0,-.51E-6,0
GSAT0233 (GALILEO 33),2025-302A,2026-07-08T17:37:03.024192,1.70473891,.00008585,54.3473,101.5178,172.7787,247.6086,0,U,67160,999,349,0,-.12E-6,0
GSAT0234 (GALILEO 34),2025-302C,2026-07-08T15:15:42.108192,1.70473878,.00021916,54.3489,101.5195,318.8515,221.3959,0,U,67162,999,354,0,-.12E-6,0
GPS BIII-9  (PRN 20),2026-017A,2026-07-08T15:15:04.447296,2.00570619,.0021643,55.1016,87.8945,259.6539,100.1366,0,U,67588,999,43204,0,-.3E-6,0
GPS BIII-10 (PRN 13),2026-087A,2026-07-08T08:38:38.586912,2.00571972,.00205396,54.9624,206.9506,106.6860,259.9662,0,U,68791,999,126,0,.111E-5,0
